NORAD_CAT_ID,OBJECT_NAME,OBJECT_TYPE,EPOCH,MEAN_MOTION,ECCENTRICITY,INCLINATION,RA_OF_ASC_NODE,ARG_OF_PERICENTER,MEAN_ANOMALY,BSTAR,MEAN_MOTION_DOT,MEAN_MOTION_DDOT,TLE_LINE0,TLE_LINE1,TLE_LINE2,SEMIMAJOR_AXIS,PERIOD,APOGEE,PERIGEE,DECAYED
56480.0,STARLINK-6214,PAYLOAD,2024-01-03 08:19:33,14.98327605,0.0002458,70.0017,332.3663,257.8313,102.2571,8.3538e-06,7e-08,0.0,0 STARLINK-6214,1 56480U 23064AJ  24003.34691345  .00000007  00000-0  83538-5 0  9991,2 56480  70.0017 332.3663 0002458 257.8313 102.2571 14.98327605 36455,6950.2,96.107,573.774,570.357,0.0
56480.0,STARLINK-6214,PAYLOAD,2024-01-03 22:44:45,14.98333183,0.0002531,70.0016,330.8516,262.2843,97.8028,-3.1124e-05,-4.64e-06,0.0,0 STARLINK-6214,1 56480U 23064AJ  24003.94775034 -.00000464  00000-0 -31124-4 0  9997,2 56480  70.0016 330.8516 0002531 262.2843  97.8028 14.98333183 36548,6950.183,96.107,573.807,570.289,0.0
56480.0,STARLINK-6214,PAYLOAD,2024-01-04 03:33:09,14.9833255,0.0002566,70.0011,330.3473,253.8187,106.269,-6.9872e-05,-9.27e-06,0.0,0 STARLINK-6214,1 56480U 23064AJ  24004.14803153 -.00000927  00000-0 -69872-4 0  9999,2 56480  70.0011 330.3473 0002566 253.8187 106.2690 14.98332550 36935,6950.185,96.107,573.833,570.267,0.0
56480.0,STARLINK-6214,PAYLOAD,2024-01-04 05:09:17,14.98332538,0.0002631,70.0012,330.1788,259.947,100.1393,-4.6122e-05,-6.43e-06,0.0,0 STARLINK-6214,1 56480U 23064AJ  24004.21479111 -.00000643  00000-0 -46122-4 0  9998,2 56480  70.0012 330.1788 0002631 259.9470 100.1393 14.98332538 36588,6950.185,96.107,573.879,570.221,0.0
56480.0,STARLINK-6214,PAYLOAD,2024-01-04 22:46:46,14.9832577,0.0002755,70.0011,328.3273,265.9572,94.1272,5.1156e-05,5.17e-06,0.0,0 STARLINK-6214,1 56480U 23064AJ  24004.94915127  .00000517  00000-0  51156-4 0  9991,2 56480  70.0011 328.3273 0002755 265.9572  94.1272 14.98325770 36692,6950.206,96.107,573.986,570.156,0.0
56480.0,STARLINK-6214,PAYLOAD,2024-01-05 05:11:19,14.98327444,0.0002548,70.0014,327.6533,257.029,103.0584,8.9702e-06,1.4e-07,0.0,0 STARLINK-6214,1 56480U 23064AJ  24005.21619237  .00000014  00000-0  89702-5 0  9996,2 56480  70.0014 327.6533 0002548 257.0290 103.0584 14.98327444 37096,6950.201,96.107,573.837,570.295,0.0
56480.0,STARLINK-6214,PAYLOAD,2024-01-05 06:47:27,14.9832834,0.0002684,70.001,327.4844,275.1425,84.9428,1.2431e-05,5.5e-07,0.0,0 STARLINK-6214,1 56480U 23064AJ  24005.28295246  .00000055  00000-0  12431-4 0  9992,2 56480  70.0010 327.4844 0002684 275.1425  84.9428 14.98328340 36748,6950.198,96.107,573.928,570.198,0.0
56480.0,STARLINK-6214,PAYLOAD,2024-01-05 22:48:47,14.98324308,0.0002864,70.0009,325.8011,268.7825,91.3005,3.2075e-05,2.9e-06,0.0,0 STARLINK-6214,1 56480U 23064AJ  24005.95055386  .00000290  00000-0  32075-4 0  9992,2 56480  70.0009 325.8011 0002864 268.7825  91.3005 14.98324308 36840,6950.21,96.107,574.066,570.085,0.0
56480.0,STARLINK-6214,PAYLOAD,2024-01-06 06:49:27,14.98328329,0.0003061,70.0005,324.96,273.4618,86.6191,6.1644e-05,6.43e-06,0.0,0 STARLINK-6214,1 56480U 23064AJ  24006.28435134  .00000643  00000-0  61644-4 0  9998,2 56480  70.0005 324.9600 0003061 273.4618  86.6191 14.98328329 37259,6950.198,96.107,574.191,569.936,0.0
56480.0,STARLINK-6214,PAYLOAD,2024-01-06 21:14:40,14.98327505,0.0002924,70.0004,323.4451,269.2583,90.8241,2.8403e-05,2.46e-06,0.0,0 STARLINK-6214,1 56480U 23064AJ  24006.88519228  .00000246  00000-0  28403-4 0  9996,2 56480  70.0004 323.4451 0002924 269.2583  90.8241 14.98327505 36984,6950.201,96.107,574.098,570.033,0.0
56480.0,STARLINK-6214,PAYLOAD,2024-01-07 06:51:28,14.98336037,0.0003026,70.0006,322.4348,271.1807,88.9005,1.0331e-06,-8.1e-07,0.0,0 STARLINK-6214,1 56480U 23064AJ  24007.28574753 -.00000081  00000-0  10331-5 0  9995,2 56480  70.0006 322.4348 0003026 271.1807  88.9005 14.98336037 37409,6950.174,96.107,574.142,569.936,0.0
56480.0,STARLINK-6214,PAYLOAD,2024-01-07 22:52:49,14.9831505,0.0002616,70.001,320.7515,271.138,88.9479,0.00027153,3.147e-05,0.0,0 STARLINK-6214,1 56480U 23064AJ  24007.95335195  .00003147  00000-0  27153-3 0  9997,2 56480  70.0010 320.7515 0002616 271.1380  88.9479 14.98315050 37149,6950.239,96.108,573.922,570.286,0.0
56480.0,STARLINK-6214,PAYLOAD,2024-01-08 03:41:13,14.98327572,0.0002636,70.001,320.2466,268.5784,91.5073,5.5397e-05,5.68e-06,0.0,0 STARLINK-6214,1 56480U 23064AJ  24008.15363150  .00000568  00000-0  55397-4 0  9998,2 56480  70.0010 320.2466 0002636 268.5784  91.5073 14.98327572 37534,6950.2,96.107,573.897,570.233,0.0
56480.0,STARLINK-6214,PAYLOAD,2024-01-08 06:53:29,14.98328965,0.0002627,70.0008,319.9102,268.4521,91.6337,7.409e-05,7.91e-06,0.0,0 STARLINK-6214,1 56480U 23064AJ  24008.28715025  .00000791  00000-0  74090-4 0  9993,2 56480  70.0008 319.9102 0002627 268.4521  91.6337 14.98328965 37194,6950.196,96.107,573.887,570.235,0.0
56480.0,STARLINK-6214,PAYLOAD,2024-01-08 22:54:50,14.98330383,0.0002682,70.0011,318.2266,273.5533,86.5319,9.3865e-06,1.9e-07,0.0,0 STARLINK-6214,1 56480U 23064AJ  24008.95475048  .00000019  00000-0  93865-5 0  9990,2 56480  70.0011 318.2266 0002682 273.5533  86.5319 14.98330383 37293,6950.192,96.107,573.921,570.193,0.0
56480.0,STARLINK-6214,PAYLOAD,2024-01-09 05:19:22,14.98331351,0.0002632,70.001,317.5534,273.1436,86.9422,2.2875e-05,1.8e-06,0.0,0 STARLINK-6214,1 56480U 23064AJ  24009.22178934  .00000180  00000-0  22875-4 0  9996,2 56480  70.0010 317.5534 0002632 273.1436  86.9422 14.98331351 37694,6950.189,96.107,573.883,570.224,0.0
56480.0,STARLINK-6214,PAYLOAD,2024-01-09 06:55:30,14.9834161,0.0002614,70.001,317.3853,274.2857,85.8004,-0.00011931,-1.517e-05,0.0,0 STARLINK-6214,1 56480U 23064AJ  24009.28854598 -.00001517  00000-0 -11931-3 0  9996,2 56480  70.0010 317.3853 0002614 274.2857  85.8004 14.98341610 37340,6950.157,96.106,573.839,570.205,0.0
56480.0,STARLINK-6214,PAYLOAD,2024-01-10 05:21:23,14.98333446,0.0002559,70.0011,315.0296,266.4659,93.6207,2.8159e-05,2.43e-06,0.0,0 STARLINK-6214,1 56480U 23064AJ  24010.22318576  .00000243  00000-0  28159-4 0  9997,2 56480  70.0011 315.0296 0002559 266.4659  93.6207 14.98333446 37843,6950.182,96.107,573.826,570.269,0.0
56480.0,STARLINK-6214,PAYLOAD,2024-01-11 05:23:24,14.9832407,0.0002597,70.0008,312.5037,262.5319,97.5545,0.0001148,1.277e-05,0.0,0 STARLINK-6214,1 56480U 23064AJ  24011.22458890  .00001277  00000-0  11480-3 0  9998,2 56480  70.0008 312.5037 0002597 262.5319  97.5545 14.98324070 37993,6950.211,96.107,573.881,570.271,0.0
56480.0,STARLINK-6214,PAYLOAD,2024-01-11 21:24:45,14.98326711,0.0002687,70.0005,310.8195,262.5826,97.5028,-3.0393e-05,-4.56e-06,0.0,0 STARLINK-6214,1 56480U 23064AJ  24011.89219051 -.00000456  00000-0 -30393-4 0  9990,2 56480  70.0005 310.8195 0002687 262.5826  97.5028 14.98326711 37731,6950.203,96.107,573.936,570.201,0.0
56480.0,STARLINK-6214,PAYLOAD,2024-01-12 05:25:25,14.98332189,0.0002749,70.0008,309.9793,265.303,94.7815,1.1471e-05,4.4e-07,0.0,0 STARLINK-6214,1 56480U 23064AJ  24012.22598663  .00000044  00000-0  11471-4 0  9994,2 56480  70.0008 309.9793 0002749 265.3030  94.7815 14.98332189 38149,6950.186,96.107,573.962,570.141,0.0
56480.0,STARLINK-6214,PAYLOAD,2024-01-12 23:02:54,14.98325328,0.0002693,70.0008,308.1276,264.8559,95.2292,8.2183e-06,5e-08,0.0,0 STARLINK-6214,1 56480U 23064AJ  24012.96035143  .00000005  00000-0  82183-5 0  9990,2 56480  70.0008 308.1276 0002693 264.8559  95.2292 14.98325328 37897,6950.207,96.107,573.944,570.201,0.0
56480.0,STARLINK-6214,PAYLOAD,2024-01-13 05:27:26,14.98329625,0.0002749,70.0008,307.4544,267.1558,92.9287,4.8962e-05,4.91e-06,0.0,0 STARLINK-6214,1 56480U 23064AJ  24013.22738805  .00000491  00000-0  48962-4 0  9990,2 56480  70.0008 307.4544 0002749 267.1558  92.9287 14.98329625 38291,6950.194,96.107,573.97,570.148,0.0
56480.0,STARLINK-6214,PAYLOAD,2024-01-14 05:29:27,14.98331846,0.000253,70.0012,304.9295,263.594,96.4931,6.6515e-05,7.01e-06,0.0,0 STARLINK-6214,1 56480U 23064AJ  24014.22878743  .00000701  00000-0  66515-4 0  9995,2 56480  70.0012 304.9295 0002530 263.5940  96.4931 14.98331846 38444,6950.187,96.107,573.811,570.294,0.0
56480.0,STARLINK-6214,PAYLOAD,2024-01-14 21:30:47,14.98333997,0.0002479,70.0014,303.2466,260.6211,99.4668,7.9031e-05,8.5e-06,0.0,0 STARLINK-6214,1 56480U 23064AJ  24014.89638425  .00000850  00000-0  79031-4 0  9991,2 56480  70.0014 303.2466 0002479 260.6211  99.4668 14.98333997 38189,6950.181,96.107,573.768,570.323,0.0
56480.0,STARLINK-6214,PAYLOAD,2024-01-15 03:55:19,14.9834114,0.0002534,70.0015,302.5732,263.6909,96.3962,-4.0718e-06,-1.42e-06,0.0,0 STARLINK-6214,1 56480U 23064AJ  24015.16342094 -.00000142  00000-0 -40718-5 0  9993,2 56480  70.0015 302.5732 0002534 263.6909  96.3962 14.98341140 38583,6950.158,96.106,573.785,570.262,0.0
56480.0,STARLINK-6214,PAYLOAD,2024-01-15 19:56:40,14.98328565,0.0002492,70.0025,300.8914,259.5857,100.5021,3.4573e-05,3.2e-06,0.0,0 STARLINK-6214,1 56480U 23064AJ  24015.83102699  .00000320  00000-0  34573-4 0  9999,2 56480  70.0025 300.8914 0002492 259.5857 100.5021 14.98328565 38328,6950.197,96.107,573.794,570.33,0.0
56480.0,STARLINK-6214,PAYLOAD,2024-01-15 23:08:56,14.9832797,0.0003019,70.0018,300.5553,261.5522,98.5295,1.1034e-05,3.9e-07,0.0,0 STARLINK-6214,1 56480U 23064AJ  24015.96454859  .00000039  00000-0  11034-4 0  9995,2 56480  70.0018 300.5553 0003019 261.5522  98.5295 14.98327970 38704,6950.199,96.107,574.162,569.966,0.0
56480.0,STARLINK-6214,PAYLOAD,2024-01-16 05:33:29,14.98325993,0.0002899,70.0018,299.882,264.6483,95.4346,1.7066e-05,1.11e-06,0.0,0 STARLINK-6214,1 56480U 23064AJ  24016.23159059  .00000111  00000-0  17066-4 0  9992,2 56480  70.0018 299.8820 0002899 264.6483  95.4346 14.98325993 38386,6950.205,96.107,574.085,570.055,0.0
56480.0,STARLINK-6214,PAYLOAD,2024-01-16 21:34:49,14.98331175,0.0002783,70.0012,298.1977,263.2923,96.7919,-4.0251e-06,-1.41e-06,0.0,0 STARLINK-6214,1 56480U 23064AJ  24016.89918584 -.00000141  00000-0 -40251-5 0  9998,2 56480  70.0012 298.1977 0002783 263.2923  96.7919 14.98331175 38481,6950.189,96.107,573.988,570.12,0.0
